UNISAT-6                
1 40012U 14033C   25010.42546922  .00004122  00000+0  49957-3 0  9995
2 40012  97.7198 171.1721 0049467 349.1272  10.8869 14.83278042568525
DUCHIFAT-1              
1 40021U 14033M   25010.23510935  .00021272  00000+0  10154-2 0  9990
2 40021  98.0995  12.5792 0012451 110.6008 249.6561 15.19020627575423
QB50P1                  
1 40025U 14033R   25010.37304287  .00010080  00000+0  69024-3 0  9996
2 40025  98.0679 345.2245 0010617 192.2024 167.8946 15.06248277573998
XW-2C                   
1 40906U 15049H   25010.50385360  .00233599  00000+0  11593-2 0  9997
2 40906  97.4491  42.7513 0001533 236.4718 123.6404 15.81348380516711
LILACSAT-2              
1 40908U 15049K   25010.48984446  .00013405  00000+0  41335-3 0  9996
2 40908  97.5177  27.6769 0010071 348.6615  11.4398 15.33671897515184
FOX-1A (AO-85)          
1 40967U 15058D   25010.50220547  .00007778  00000+0  67326-3 0  9993
2 40967  64.7770  98.1489 0181298 241.9932 116.2734 14.85935346 35759
CAS-2T & KS-1Q          
1 41847U 16066G   25010.43730445  .00002055  00000+0  30555-3 0  9993
2 41847  98.4391  86.1648 0347793 272.4337  83.7085 14.42686728429367
ZHUHAI-1 02 (CAS-4B)    
1 42759U 17034B   25010.56214520  .00040203  00000+0  85829-3 0  9998
2 42759  43.0122 122.4383 0016160 322.2695  37.7029 15.44052072419278
ZHUHAI-1 01 (CAS-4A)    
1 42761U 17034D   25010.60150013  .00049351  00000+0  10365-2 0  9997
2 42761  43.0160 120.2744 0017058 330.0804  29.9078 15.44439238419287
RADFXSAT (FOX-1B)       
1 43017U 17073E   25010.58273799  .00015783  00000+0  86597-3 0  9992
2 43017  97.5480 245.3075 0186942 317.2085  41.4712 15.00457579386685
DIWATA-2B               
1 43678U 18084H   25010.53648387  .00002854  00000+0  25288-3 0  9997
2 43678  98.0874 181.1690 0009746  68.6021 291.6238 14.97060389337923
ES'HAIL 2               
1 43700U 18090A   25010.11646817  .00000153  00000+0  00000+0 0  9991
2 43700   0.0251  35.8807 0003044 295.0486 206.6724  1.00271889 22434
FOX-1CLIFF (AO-95)      
1 43770U 18099N   25010.13737385  .00011925  00000+0  68320-3 0  9992
2 43770  97.5178  70.1656 0012309  20.0760 340.0952 15.12693447333773
ITASAT                  
1 43786U 18099AE  25010.39359310  .00007730  00000+0  48296-3 0  9994
2 43786  97.4824  68.2041 0015655   9.7289 350.4240 15.09630643333770
JY1SAT (JO-97)          
1 43803U 18099AX  25010.11908269  .00015521  00000+0  82571-3 0  9998
2 43803  97.4926  70.9267 0007533 316.4613  43.6024 15.15319485333943
UWE-4                   
1 43880U 18111E   25010.24030401  .00017830  00000+0  85497-3 0  9991
2 43880  97.5995 281.5337 0015183  22.7915 337.3990 15.18860471330755
DUCHIFAT-3              
1 44854U 19089C   25010.60168355  .00034423  00000+0  11191-2 0  9994
2 44854  36.9477 217.4994 0010573  20.9896 339.1288 15.30967323279909
