[{"OBJECT_NAME":"UNISAT-6","OBJECT_ID":"2014-033C","EPOCH":"2025-01-10T10:12:40.540608","MEAN_MOTION":14.83278042,"ECCENTRICITY":0.0049467,"INCLINATION":97.7198,"RA_OF_ASC_NODE":171.1721,"ARG_OF_PERICENTER":349.1272,"MEAN_ANOMALY":10.8869,"EPHEMERIS_TYPE":0,"CLASSIFICATION_TYPE":"U","NORAD_CAT_ID":40012,"ELEMENT_SET_NO":999,"REV_AT_EPOCH":56852,"BSTAR":0.00049957,"MEAN_MOTION_DOT":4.122e-5,"MEAN_MOTION_DDOT":0},{"OBJECT_NAME":"DUCHIFAT-1","OBJECT_ID":"2014-033M","EPOCH":"2025-01-10T05:38:33.447840","MEAN_MOTION":15.19020627,"ECCENTRICITY":0.0012451,"INCLINATION":98.0995,"RA_OF_ASC_NODE":12.5792,"ARG_OF_PERICENTER":110.6008,"MEAN_ANOMALY":249.6561,"EPHEMERIS_TYPE":0,"CLASSIFICATION_TYPE":"U","NORAD_CAT_ID":40021,"ELEMENT_SET_NO":999,"REV_AT_EPOCH":57542,"BSTAR":0.0010154,"MEAN_MOTION_DOT":0.00021272,"MEAN_MOTION_DDOT":0},{"OBJECT_NAME":"QB50P1","OBJECT_ID":"2014-033R","EPOCH":"2025-01-10T08:57:10.903968","MEAN_MOTION":15.06248277,"ECCENTRICITY":0.0010617,"INCLINATION":98.0679,"RA_OF_ASC_NODE":345.2245,"ARG_OF_PERICENTER":192.2024,"MEAN_ANOMALY":167.8946,"EPHEMERIS_TYPE":0,"CLASSIFICATION_TYPE":"U","NORAD_CAT_ID":40025,"ELEMENT_SET_NO":999,"REV_AT_EPOCH":57399,"BSTAR":0.00069024,"MEAN_MOTION_DOT":0.0001008,"MEAN_MOTION_DDOT":0},{"OBJECT_NAME":"XW-2C","OBJECT_ID":"2015-049H","EPOCH":"2025-01-10T12:05:32.951040","MEAN_MOTION":15.8134838,"ECCENTRICITY":0.0001533,"INCLINATION":97.4491,"RA_OF_ASC_NODE":42.7513,"ARG_OF_PERICENTER":236.4718,"MEAN_ANOMALY":123.6404,"EPHEMERIS_TYPE":0,"CLASSIFICATION_TYPE":"U","NORAD_CAT_ID":40906,"ELEMENT_SET_NO":999,"REV_AT_EPOCH":51671,"BSTAR":0.0011593,"MEAN_MOTION_DOT":0.00233599,"MEAN_MOTION_DDOT":0},{"OBJECT_NAME":"LILACSAT-2","OBJECT_ID":"2015-049K","EPOCH":"2025-01-10T11:45:22.561344","MEAN_MOTION":15.33671897,"ECCENTRICITY":0.0010071,"INCLINATION":97.5177,"RA_OF_ASC_NODE":27.6769,"ARG_OF_PERICENTER":348.6615,"MEAN_ANOMALY":11.4398,"EPHEMERIS_TYPE":0,"CLASSIFICATION_TYPE":"U","NORAD_CAT_ID":40908,"ELEMENT_SET_NO":999,"REV_AT_EPOCH":51518,"BSTAR":0.00041335,"MEAN_MOTION_DOT":0.00013405,"MEAN_MOTION_DDOT":0},{"OBJECT_NAME":"FOX-1A (AO-85)","OBJECT_ID":"2015-058D","EPOCH":"2025-01-10T12:03:10.552608","MEAN_MOTION":14.85935346,"ECCENTRICITY":0.0181298,"INCLINATION":64.777,"RA_OF_ASC_NODE":98.1489,"ARG_OF_PERICENTER":241.9932,"MEAN_ANOMALY":116.2734,"EPHEMERIS_TYPE":0,"CLASSIFICATION_TYPE":"U","NORAD_CAT_ID":40967,"ELEMENT_SET_NO":999,"REV_AT_EPOCH":3575,"BSTAR":0.00067326,"MEAN_MOTION_DOT":7.778e-5,"MEAN_MOTION_DDOT":0},{"OBJECT_NAME":"CAS-2T & KS-1Q","OBJECT_ID":"2016-066G","EPOCH":"2025-01-10T10:29:43.104480","MEAN_MOTION":14.42686728,"ECCENTRICITY":0.0347793,"INCLINATION":98.4391,"RA_OF_ASC_NODE":86.1648,"ARG_OF_PERICENTER":272.4337,"MEAN_ANOMALY":83.7085,"EPHEMERIS_TYPE":0,"CLASSIFICATION_TYPE":"U","NORAD_CAT_ID":41847,"ELEMENT_SET_NO":999,"REV_AT_EPOCH":42936,"BSTAR":0.00030555,"MEAN_MOTION_DOT":2.055e-5,"MEAN_MOTION_DDOT":0},{"OBJECT_NAME":"ZHUHAI-1 02 (CAS-4B)","OBJECT_ID":"2017-034B","EPOCH":"2025-01-10T13:29:29.345280","MEAN_MOTION":15.44052072,"ECCENTRICITY":0.001616,"INCLINATION":43.0122,"RA_OF_ASC_NODE":122.4383,"ARG_OF_PERICENTER":322.2695,"MEAN_ANOMALY":37.7029,"EPHEMERIS_TYPE":0,"CLASSIFICATION_TYPE":"U","NORAD_CAT_ID":42759,"ELEMENT_SET_NO":999,"REV_AT_EPOCH":41927,"BSTAR":0.00085829,"MEAN_MOTION_DOT":0.00040203,"MEAN_MOTION_DDOT":0},{"OBJECT_NAME":"ZHUHAI-1 01 (CAS-4A)","OBJECT_ID":"2017-034D","EPOCH":"2025-01-10T14:26:09.611232","MEAN_MOTION":15.44439238,"ECCENTRICITY":0.0017058,"INCLINATION":43.016,"RA_OF_ASC_NODE":120.2744,"ARG_OF_PERICENTER":330.0804,"MEAN_ANOMALY":29.9078,"EPHEMERIS_TYPE":0,"CLASSIFICATION_TYPE":"U","NORAD_CAT_ID":42761,"ELEMENT_SET_NO":999,"REV_AT_EPOCH":41928,"BSTAR":0.0010365,"MEAN_MOTION_DOT":0.00049351,"MEAN_MOTION_DDOT":0},{"OBJECT_NAME":"RADFXSAT (FOX-1B)","OBJECT_ID":"2017-073E","EPOCH":"2025-01-10T13:59:08.562336","MEAN_MOTION":15.00457579,"ECCENTRICITY":0.0186942,"INCLINATION":97.548,"RA_OF_ASC_NODE":245.3075,"ARG_OF_PERICENTER":317.2085,"MEAN_ANOMALY":41.4712,"EPHEMERIS_TYPE":0,"CLASSIFICATION_TYPE":"U","NORAD_CAT_ID":43017,"ELEMENT_SET_NO":999,"REV_AT_EPOCH":38668,"BSTAR":0.00086597,"MEAN_MOTION_DOT":0.00015783,"MEAN_MOTION_DDOT":0},{"OBJECT_NAME":"DIWATA-2B","OBJECT_ID":"2018-084H","EPOCH":"2025-01-10T12:52:32.206368","MEAN_MOTION":14.97060389,"ECCENTRICITY":0.0009746,"INCLINATION":98.0874,"RA_OF_ASC_NODE":181.169,"ARG_OF_PERICENTER":68.6021,"MEAN_ANOMALY":291.6238,"EPHEMERIS_TYPE":0,"CLASSIFICATION_TYPE":"U","NORAD_CAT_ID":43678,"ELEMENT_SET_NO":999,"REV_AT_EPOCH":33792,"BSTAR":0.00025288,"MEAN_MOTION_DOT":2.854e-5,"MEAN_MOTION_DDOT":0},{"OBJECT_NAME":"ES'HAIL 2","OBJECT_ID":"2018-090A","EPOCH":"2025-01-10T02:47:42.849888","MEAN_MOTION":1.00271889,"ECCENTRICITY":0.0003044,"INCLINATION":0.0251,"RA_OF_ASC_NODE":35.8807,"ARG_OF_PERICENTER":295.0486,"MEAN_ANOMALY":206.6724,"EPHEMERIS_TYPE":0,"CLASSIFICATION_TYPE":"U","NORAD_CAT_ID":43700,"ELEMENT_SET_NO":999,"REV_AT_EPOCH":2243,"BSTAR":0,"MEAN_MOTION_DOT":1.53e-6,"MEAN_MOTION_DDOT":0},{"OBJECT_NAME":"FOX-1CLIFF (AO-95)","OBJECT_ID":"2018-099N","EPOCH":"2025-01-10T03:17:49.100640","MEAN_MOTION":15.12693447,"ECCENTRICITY":0.0012309,"INCLINATION":97.5178,"RA_OF_ASC_NODE":70.1656,"ARG_OF_PERICENTER":20.076,"MEAN_ANOMALY":340.0952,"EPHEMERIS_TYPE":0,"CLASSIFICATION_TYPE":"U","NORAD_CAT_ID":43770,"ELEMENT_SET_NO":999,"REV_AT_EPOCH":33377,"BSTAR":0.0006832,"MEAN_MOTION_DOT":0.00011925,"MEAN_MOTION_DDOT":0},{"OBJECT_NAME":"ITASAT","OBJECT_ID":"2018-099AE","EPOCH":"2025-01-10T09:26:46.443840","MEAN_MOTION":15.09630643,"ECCENTRICITY":0.0015655,"INCLINATION":97.4824,"RA_OF_ASC_NODE":68.2041,"ARG_OF_PERICENTER":9.7289,"MEAN_ANOMALY":350.424,"EPHEMERIS_TYPE":0,"CLASSIFICATION_TYPE":"U","NORAD_CAT_ID":43786,"ELEMENT_SET_NO":999,"REV_AT_EPOCH":33377,"BSTAR":0.00048296,"MEAN_MOTION_DOT":7.73e-5,"MEAN_MOTION_DDOT":0},{"OBJECT_NAME":"JY1SAT (JO-97)","OBJECT_ID":"2018-099AX","EPOCH":"2025-01-10T02:51:28.744416","MEAN_MOTION":15.15319485,"ECCENTRICITY":0.0007533,"INCLINATION":97.4926,"RA_OF_ASC_NODE":70.9267,"ARG_OF_PERICENTER":316.4613,"MEAN_ANOMALY":43.6024,"EPHEMERIS_TYPE":0,"CLASSIFICATION_TYPE":"U","NORAD_CAT_ID":43803,"ELEMENT_SET_NO":999,"REV_AT_EPOCH":33394,"BSTAR":0.00082571,"MEAN_MOTION_DOT":0.00015521,"MEAN_MOTION_DDOT":0},{"OBJECT_NAME":"UWE-4","OBJECT_ID":"2018-111E","EPOCH":"2025-01-10T05:46:02.266464","MEAN_MOTION":15.18860471,"ECCENTRICITY":0.0015183,"INCLINATION":97.5995,"RA_OF_ASC_NODE":281.5337,"ARG_OF_PERICENTER":22.7915,"MEAN_ANOMALY":337.399,"EPHEMERIS_TYPE":0,"CLASSIFICATION_TYPE":"U","NORAD_CAT_ID":43880,"ELEMENT_SET_NO":999,"REV_AT_EPOCH":33075,"BSTAR":0.00085497,"MEAN_MOTION_DOT":0.0001783,"MEAN_MOTION_DDOT":0},{"OBJECT_NAME":"DUCHIFAT-3","OBJECT_ID":"2019-089C","EPOCH":"2025-01-10T14:26:25.458720","MEAN_MOTION":15.30967323,"ECCENTRICITY":0.0010573,"INCLINATION":36.9477,"RA_OF_ASC_NODE":217.4994,"ARG_OF_PERICENTER":20.9896,"MEAN_ANOMALY":339.1288,"EPHEMERIS_TYPE":0,"CLASSIFICATION_TYPE":"U","NORAD_CAT_ID":44854,"ELEMENT_SET_NO":999,"REV_AT_EPOCH":27990,"BSTAR":0.0011191,"MEAN_MOTION_DOT":0.00034423,"MEAN_MOTION_DDOT":0}]
